ONEWEB-0228             
1 48780U 21045P   24140.25283233  .00000028  00000+0  41462-4 0  9998
2 48780  87.9051  50.2059 0001928  83.7684 276.3666 13.15547941144540
